PHASE 3B (AO-10)        
1 14129U 83058B   21039.31055087 -.00000053  00000-0  00000-0 0  9994
2 14129  25.8167 176.1082 6059130 308.2508  11.1622  2.05867906255269
UOSAT 2 (UO-11)         
1 14781U 84021B   21041.02947747  .00000078  00000-0  15669-4 0  9990
2 14781  97.5908  47.1620 0009511 133.5997 226.6009 14.83245502988042
LUSAT (LO-19)           
1 20442U 90005G   21040.84829881 -.00000015  00000-0  11070-4 0  9991
2 20442  98.7249 355.2717 0011829 171.1459 188.9936 14.32975623622558
EYESAT A (AO-27)        
1 22825U 93061C   21041.04369207  .00000005  00000-0  19786-4 0  9997
2 22825  98.9242  55.4842 0009213  50.4384 309.7610 14.30105709428046
ITAMSAT (IO-26)         
1 22826U 93061D   21040.90430687  .00000007  00000-0  20599-4 0  9999
2 22826  98.9183  55.2624 0009572  39.1850 321.0023 14.30443407427995
RADIO ROSTO (RS-15)     
1 23439U 94085A   21040.98926032 -.00000037  00000-0  15882-3 0  9991
2 23439  64.8137 222.1065 0156977 358.2134   1.8212 11.27570506 75966
JAS-2 (FO-29)           
1 24278U 96046B   21040.67576584 -.00000027  00000-0  54295-5 0  9993
2 24278  98.5813 125.5152 0351161 120.5737 243.0543 13.53101914208966
TECHSAT 1B (GO-32)      
1 25397U 98043D   21040.63881977 -.00000023  00000-0  94752-5 0  9994
2 25397  98.7571 346.6427 0002369  90.8064 269.3386 14.23700830173303
ISS (ZARYA)             
1 25544U 98067A   21040.93620630  .00000791  00000-0  22545-4 0  9995
2 25544  51.6439 252.1222 0002708 354.7355  81.9453 15.48944724268874
PCSAT (NO-44)           
1 26931U 01043C   21040.31075373 -.00000017  00000-0  25302-4 0  9990
2 26931  67.0494 251.1446 0007361 270.0588  89.9670 14.30605566 10919
SAUDISAT 1C (SO-50)     
1 27607U 02058C   21041.17070743 -.00000003  00000-0  19853-4 0  9998
2 27607  64.5569   7.5491 0029779  75.9574 284.4835 14.75710002975930
CUTE-1 (CO-55)          
1 27844U 03031E   21041.00508516  .00000057  00000-0  45104-4 0  9995
2 27844  98.6822  51.1384 0010947  88.4719 271.7713 14.22287159913903
CUBESAT XI-IV (CO-57)   
1 27848U 03031J   21040.81974587  .00000043  00000-0  39329-4 0  9999
2 27848  98.6882  51.5240 0010838 100.6199 259.6200 14.21867040913678
MOZHAYETS 4 (RS-22)     
1 27939U 03042A   21041.17281001  .00000161  00000-0  37444-4 0  9991
2 27939  98.1182 179.3189 0011903 326.9625  33.0831 14.66942297928867
CUBESAT XI-V            
1 28895U 05043F   21040.81290168  .00000124  00000-0  32666-4 0  9990
2 28895  98.0377 176.9996 0015591 250.7305 109.2211 14.63862922815337
CUTE-1.7+APD II (CO-65) 
1 32785U 08021C   21040.75801909  .00000280  00000-0  35626-4 0  9998
2 32785  97.5976  24.6651 0014439  68.9361 291.3399 14.88628320693172
DELFI-C3 (DO-64)        
1 32789U 08021G   21041.07621440  .00001068  00000-0  72340-4 0  9997
2 32789  97.3922  81.2850 0011065 213.7692 146.2834 15.08473626697721
SEEDS II (CO-66)        
1 32791U 08021J   21040.61306651  .00000276  00000-0  33089-4 0  9990
2 32791  97.5600  30.5498 0014172  37.7241 322.4969 14.91271215693724
YUBILEINY (RS-30)       
1 32953U 08025A   21041.14482788  .00000028  00000-0  12906-3 0  9998
2 32953  82.5055 130.1181 0018530 252.7401 107.1652 12.43099861577163
KKS-1 (KISEKI)          
1 33499U 09002H   21040.85715239  .00000109  00000-0  23910-4 0  9995
2 33499  98.2875 267.8379 0010376  88.4179 271.8218 14.75615493647590
SWISSCUBE               
1 35932U 09051B   21041.05911147  .00000128  00000-0  39930-4 0  9992
2 35932  98.6073 237.0134 0008561 115.4351 244.7733 14.56486004604454
BEESAT-1                
1 35933U 09051C   21041.09871997  .00000108  00000-0  35179-4 0  9994
2 35933  98.6050 238.9065 0006654 125.6154 234.5664 14.56550141604575
ITUPSAT1                
1 35935U 09051E   21041.02725619  .00000095  00000-0  32974-4 0  9993
2 35935  98.6155 238.9952 0008958 127.6792 232.5218 14.55687512604268
XIWANG-1 (HOPE-1)       
1 36122U 09072B   21040.76667880 -.00000019  00000-0  61449-4 0  9996
2 36122 100.1170  26.8012 0007917  40.2651 319.9063 13.16358950536092
JUGNU                   
1 37839U 11058B   21041.05210531  .00000325  00000-0  31481-4 0  9991
2 37839  19.9609 281.8517 0019013 127.9157  16.7670 14.12703057482533
SRMSAT                  
1 37841U 11058D   21041.18363542  .00000303  00000-0  21253-4 0  9991
2 37841  19.9734 350.2986 0011704 336.2768 145.0032 14.10684480481867
M-CUBED & EXP-1 PRIME   
1 37855U 11061F   21040.58648864  .00001206  00000-0  65805-4 0  9990
2 37855 101.7260 257.6811 0168324  90.8583 271.1919 15.07178189506912
STRAND-1                
1 39090U 13009E   21041.10112694  .00000026  00000-0  24167-4 0  9998
2 39090  98.4365 246.2247 0008167 301.7420  58.2969 14.35167863416794
SOMP                    
1 39134U 13015E   21040.66896787  .00001541  00000-0  76131-4 0  9997
2 39134  64.8610 227.8325 0010004 221.0662 138.9714 15.21968568431765
BEESAT-3                
1 39135U 13015F   21040.93055493  .00000967  00000-0  55648-4 0  9990
2 39135  64.8646 254.1153 0013164 201.7072 158.3498 15.18896254431276
BEESAT-2                
1 39136U 13015G   21040.94157230  .00001023  00000-0  59020-4 0  9996
2 39136  64.8730 259.9525 0028172 260.6640  99.1300 15.18283166431150
ZACUBE-1 (TSHEPISOSAT)  
1 39417U 13066B   21041.20115495  .00000195  00000-0  30754-4 0  9993
2 39417  97.5820  32.2065 0057730 217.2116 142.5091 14.81424999390237
GOMX-1                  
1 39430U 13066Q   21041.02180016  .00000151  00000-0  36111-4 0  9994
2 39430  97.8103 331.4422 0151140 155.7681 205.0724 14.59531457384451
CUBEBUG-2 (LO-74)       
1 39440U 13066AA  21040.88509739  .00000230  00000-0  39035-4 0  9991
2 39440  97.6603  16.6492 0078558 289.9106  69.3653 14.76159435387600
FUNCUBE-1 (AO-73)       
1 39444U 13066AE  21040.92485030  .00000235  00000-0  34982-4 0  9998
2 39444  97.5738  34.2788 0056993 209.0026 150.8018 14.82311983388549
UWE-3                   
1 39446U 13066AG  21041.21165894  .00000200  00000-0  33172-4 0  9998
2 39446  97.6231  24.0129 0068296 253.9720 105.3962 14.78693682388293
SPROUT                  
1 39770U 14029E   21041.13994983  .00000793  00000-0  92110-4 0  9992
2 39770  97.9062 152.6450 0007680 265.8795  94.1550 14.88169392364409
UNISAT-6                
1 40012U 14033C   21040.83492039  .00000187  00000-0  34997-4 0  9995
2 40012  97.6863 249.8725 0057184 314.0544  45.5963 14.74238943357395
DUCHIFAT-1              
1 40021U 14033M   21040.91376614  .00000530  00000-0  59205-4 0  9995
2 40021  97.9622 339.8560 0011747 220.6716 139.3625 14.91174865361276
QB50P1                  
1 40025U 14033R   21041.04043718  .00000233  00000-0  30544-4 0  9995
2 40025  97.9274 331.4549 0011148 234.3754 125.6426 14.89325278360962
NUDT-PHONESAT           
1 40900U 15049B   21041.22664560  .00002835  00000-0  11480-3 0  9996
2 40900  97.4256  56.2243 0011055 221.1734 203.0976 15.25465495299421
ZDPS 2A                 
1 40901U 15049C   21041.20618148  .00001629  00000-0  81005-4 0  9997
2 40901  97.4641  49.8718 0011421 266.1643 159.2960 15.19018127298658
ZDPS 2B                 
1 40902U 15049D   21041.25178563  .00001708  00000-0  84713-4 0  9992
2 40902  97.4653  47.2064 0011459 262.0230 153.0387 15.19036964298638
XW-2A                   
1 40903U 15049E   21041.21461309  .00002574  00000-0  57504-4 0  9992
2 40903  97.2567  96.0309 0014421 116.0178 314.8615 15.44360298303159
KAITUO 1A               
1 40904U 15049F   21041.22806341  .00000369  00000-0  22700-4 0  9993
2 40904  97.4841  44.7818 0012913 281.3378 141.9710 15.15995325298267
2015-049G               
1 40905U 15049G   21041.22938949  .00000410  00000-0  25626-4 0  9991
2 40905  97.4962  41.8975 0013876 278.7478 136.9172 15.14822246298079
XW-2C                   
1 40906U 15049H   21041.21715571  .00000661  00000-0  37387-4 0  9990
2 40906  97.4848  45.1993 0013009 269.3901 151.2918 15.16473439298284
XW-2D                   
1 40907U 15049J   21041.23604458  .00000891  00000-0  48770-4 0  9997
2 40907  97.4828  44.9719 0012321 265.2663 150.5728 15.16760172298310
LILACSAT-2              
1 40908U 15049K   21041.21377405  .00000276  00000-0  18695-4 0  9995
2 40908  97.5005  42.9745 0014257 281.1664 138.6324 15.14280444297971
XW-2F                   
1 40910U 15049M   21041.22219072  .00001211  00000-0  61782-4 0  9999
2 40910  97.4725  47.8758 0012883 251.6760 168.9574 15.18594698298418
XW-2B                   
1 40911U 15049N   21041.23209782  .00000812  00000-0  44836-4 0  9995
2 40911  97.4836  45.6630 0012243 266.3776 150.0278 15.16679958298208
KAITUO 1B               
1 40912U 15049P   21041.23194650  .00001416  00000-0  66758-4 0  9991
2 40912  97.4480  52.2148 0013405 222.8006 198.3266 15.21073353298852
TIANWANG 1C (TW-1C)     
1 40926U 15051B   21041.11435862  .00277867  33395-4  59461-3 0  9993
2 40926  97.0452 103.1154 0003813 230.5103 185.5806 15.98587808304430
TIANWANG 1A (TW-1A)     
1 40928U 15051D   21041.21058613  .00004137  00000-0  90978-4 0  9991
2 40928  97.0904  69.2009 0011176  47.3104  17.7413 15.44479482302045
LAPAN-A2                
1 40931U 15052B   21041.16246161  .00000664  00000-0  33890-5 0  9999
2 40931   6.0007  80.0890 0013070  39.9767 320.1529 14.76661177290457
E-ST@R-II               
1 41459U 16025D   21041.06175855  .00002395  00000-0  12037-3 0  9997
2 41459  98.1220 169.8927 0163356 131.5708 229.9628 15.07435618263221
AAUSAT 4                
1 41460U 16025E   21041.13850783  .00003764  00000-0  17947-3 0  9993
2 41460  98.1207 173.2404 0150967 117.3307 244.3366 15.10214068263495
NUSAT-1 (FRESCO)        
1 41557U 16033B   21041.24606828  .00001629  00000-0  60671-4 0  9991
2 41557  97.3958 135.9663 0012110 332.6733  79.5293 15.28862880262092
BEESAT-4                
1 41619U 16040W   21040.85462829  .00001554  00000-0  65182-4 0  9994
2 41619  97.2889 100.4466 0012332  66.7157 293.5378 15.24891644245563
